{"type": "FeatureCollection", "features": [{"type": "Feature", "properties": {"norad_id": 2807, "name": "OPS 7218 (TRANSIT 16)", "group": "nnss", "lat": 70.33962703025223, "lon": 172.9848255308294, "alt_km": 1046.5144774947685, "timestamp": "2025-12-16T05:49:09.483239+00:00", "meta": {"OBJECT_NAME": "OPS 7218 (TRANSIT 16)", "OBJECT_ID": "1967-048A", "EPOCH": "2025-12-15T22:29:28.427712", "MEAN_MOTION": 13.50722841, "ECCENTRICITY": 0.00220672, "INCLINATION": 89.6732, "RA_OF_ASC_NODE": 353.9102, "ARG_OF_PERICENTER": 105.5511, "MEAN_ANOMALY": 320.2043, "EPHEMERIS_TYPE": 0, "CLASSIFICATION_TYPE": "U", "NORAD_CAT_ID": 2807, "ELEMENT_SET_NO": 999, "REV_AT_EPOCH": 88319, "BSTAR": 0.00016676761, "MEAN_MOTION_DOT": 1.18e-06, "MEAN_MOTION_DDOT": 0}, "tle": {"line1": "1 02807U 67048A   25349.93713458  .00000118  00000+0  16677-3 0  9994", "line2": "2 02807  89.6732 353.9102 0022067 105.5511 320.2043 13.50722841883198"}}, "geometry": {"type": "Point", "coordinates": [172.9848255308294, 70.33962703025223]}}, {"type": "Feature", "properties": {"norad_id": 2965, "name": "OPS 4947 (TRANSIT 17)", "group": "nnss", "lat": -28.45020706358992, "lon": -155.42450525704135, "alt_km": 1032.2016715491782, "timestamp": "2025-12-16T05:49:09.483260+00:00", "meta": {"OBJECT_NAME": "OPS 4947 (TRANSIT 17)", "OBJECT_ID": "1967-092A", "EPOCH": "2025-12-15T20:46:40.471680", "MEAN_MOTION": 13.53454241, "ECCENTRICITY": 0.00463789, "INCLINATION": 89.2494, "RA_OF_ASC_NODE": 24.1972, "ARG_OF_PERICENTER": 225.1377, "MEAN_ANOMALY": 308.88, "EPHEMERIS_TYPE": 0, "CLASSIFICATION_TYPE": "U", "NORAD_CAT_ID": 2965, "ELEMENT_SET_NO": 999, "REV_AT_EPOCH": 87139, "BSTAR": 0.00020698748, "MEAN_MOTION_DOT": 1.51e-06, "MEAN_MOTION_DDOT": 0}, "tle": {"line1": "1 02965U 67092A   25349.86574620  .00000151  00000+0  20699-3 0  9992", "line2": "2 02965  89.2494  24.1972 0046378 225.1377 308.8800 13.53454241871397"}}, "geometry": {"type": "Point", "coordinates": [-155.42450525704135, -28.45020706358992]}}, {"type": "Feature", "properties": {"norad_id": 3133, "name": "OPS 7034 (TRANSIT 18)", "group": "nnss", "lat": -26.136155859954098, "lon": -86.33748946833398, "alt_km": 1127.1812972528323, "timestamp": "2025-12-16T05:49:09.483274+00:00", "meta": {"OBJECT_NAME": "OPS 7034 (TRANSIT 18)", "OBJECT_ID": "1968-012A", "EPOCH": "2025-12-15T19:33:33.578208", "MEAN_MOTION": 13.51566376, "ECCENTRICITY": 0.00741554, "INCLINATION": 90.0281, "RA_OF_ASC_NODE": 273.6475, "ARG_OF_PERICENTER": 160.2382, "MEAN_ANOMALY": 254.8421, "EPHEMERIS_TYPE": 0, "CLASSIFICATION_TYPE": "U", "NORAD_CAT_ID": 3133, "ELEMENT_SET_NO": 999, "REV_AT_EPOCH": 56960, "BSTAR": 0.00014296418, "MEAN_MOTION_DOT": 1.05e-06, "MEAN_MOTION_DDOT": 0}, "tle": {"line1": "1 03133U 68012A   25349.81497197  .00000105  00000+0  14296-3 0  9996", "line2": "2 03133  90.0281 273.6475 0074155 160.2382 254.8421 13.51566376569605"}}, "geometry": {"type": "Point", "coordinates": [-86.33748946833398, -26.136155859954098]}}, {"type": "Feature", "properties": {"norad_id": 4507, "name": "NNSS 19 (TRANSIT 19)", "group": "nnss", "lat": -57.21669522988118, "lon": -125.45525508848206, "alt_km": 954.8933789651037, "timestamp": "2025-12-16T05:49:09.483286+00:00", "meta": {"OBJECT_NAME": "NNSS 19 (TRANSIT 19)", "OBJECT_ID": "1970-067A", "EPOCH": "2025-12-15T22:59:14.781408", "MEAN_MOTION": 13.51315748, "ECCENTRICITY": 0.01703749, "INCLINATION": 90.0054, "RA_OF_ASC_NODE": 234.5362, "ARG_OF_PERICENTER": 283.9719, "MEAN_ANOMALY": 74.2539, "EPHEMERIS_TYPE": 0, "CLASSIFICATION_TYPE": "U", "NORAD_CAT_ID": 4507, "ELEMENT_SET_NO": 999, "REV_AT_EPOCH": 72265, "BSTAR": 0.00013394691, "MEAN_MOTION_DOT": 1.03e-06, "MEAN_MOTION_DDOT": 0}, "tle": {"line1": "1 04507U 70067A   25349.95780997  .00000103  00000+0  13395-3 0  9990", "line2": "2 04507  90.0054 234.5362 0170374 283.9719  74.2539 13.51315748722652"}}, "geometry": {"type": "Point", "coordinates": [-125.45525508848206, -57.21669522988118]}}, {"type": "Feature", "properties": {"norad_id": 6909, "name": "NNSS 20 (TRANSIT 20)", "group": "nnss", "lat": -87.59892715683027, "lon": 78.43527286834598, "alt_km": 1110.436664204337, "timestamp": "2025-12-16T05:49:09.483297+00:00", "meta": {"OBJECT_NAME": "NNSS 20 (TRANSIT 20)", "OBJECT_ID": "1973-081A", "EPOCH": "2025-12-15T23:16:12.796320", "MEAN_MOTION": 13.71435769, "ECCENTRICITY": 0.01565853, "INCLINATION": 89.8562, "RA_OF_ASC_NODE": 255.0058, "ARG_OF_PERICENTER": 68.7567, "MEAN_ANOMALY": 293.0239, "EPHEMERIS_TYPE": 0, "CLASSIFICATION_TYPE": "U", "NORAD_CAT_ID": 6909, "ELEMENT_SET_NO": 999, "REV_AT_EPOCH": 80405, "BSTAR": 0.00023931126, "MEAN_MOTION_DOT": 2.46e-06, "MEAN_MOTION_DDOT": 0}, "tle": {"line1": "1 06909U 73081A   25349.96959255  .00000246  00000+0  23931-3 0  9998", "line2": "2 06909  89.8562 255.0058 0156585  68.7567 293.0239 13.71435769804059"}}, "geometry": {"type": "Point", "coordinates": [78.43527286834598, -87.59892715683027]}}, {"type": "Feature", "properties": {"norad_id": 10457, "name": "TRANSAT", "group": "nnss", "lat": -82.38707069356826, "lon": 75.83769829205148, "alt_km": 1086.3199931252684, "timestamp": "2025-12-16T05:49:09.483308+00:00", "meta": {"OBJECT_NAME": "TRANSAT", "OBJECT_ID": "1977-106A", "EPOCH": "2025-12-15T23:57:52.018272", "MEAN_MOTION": 13.48944072, "ECCENTRICITY": 0.00257079, "INCLINATION": 89.6481, "RA_OF_ASC_NODE": 78.4817, "ARG_OF_PERICENTER": 180.0773, "MEAN_ANOMALY": 353.2763, "EPHEMERIS_TYPE": 0, "CLASSIFICATION_TYPE": "U", "NORAD_CAT_ID": 10457, "ELEMENT_SET_NO": 999, "REV_AT_EPOCH": 36787, "BSTAR": 9.7036594e-05, "MEAN_MOTION_DOT": 7.1e-07, "MEAN_MOTION_DDOT": 0}, "tle": {"line1": "1 10457U 77106A   25349.99851873  .00000071  00000+0  97037-4 0  9998", "line2": "2 10457  89.6481  78.4817 0025707 180.0773 353.2763 13.48944072367879"}}, "geometry": {"type": "Point", "coordinates": [75.83769829205148, -82.38707069356826]}}, {"type": "Feature", "properties": {"norad_id": 12458, "name": "NOVA 1", "group": "nnss", "lat": -35.92480752308801, "lon": -88.55758784835116, "alt_km": 1184.6235011924027, "timestamp": "2025-12-16T05:49:09.483319+00:00", "meta": {"OBJECT_NAME": "NOVA 1", "OBJECT_ID": "1981-044A", "EPOCH": "2025-12-15T20:15:43.389216", "MEAN_MOTION": 13.23278829, "ECCENTRICITY": 0.00159318, "INCLINATION": 89.8526, "RA_OF_ASC_NODE": 91.3412, "ARG_OF_PERICENTER": 96.3869, "MEAN_ANOMALY": 23.3464, "EPHEMERIS_TYPE": 0, "CLASSIFICATION_TYPE": "U", "NORAD_CAT_ID": 12458, "ELEMENT_SET_NO": 999, "REV_AT_EPOCH": 15227, "BSTAR": 5.3525058e-05, "MEAN_MOTION_DOT": 3.2e-07, "MEAN_MOTION_DDOT": 0}, "tle": {"line1": "1 12458U 81044A   25349.84425219  .00000032  00000+0  53525-4 0  9993", "line2": "2 12458  89.8526  91.3412 0015931  96.3869  23.3464 13.23278829152274"}}, "geometry": {"type": "Point", "coordinates": [-88.55758784835116, -35.92480752308801]}}, {"type": "Feature", "properties": {"norad_id": 15362, "name": "NOVA 3", "group": "nnss", "lat": 85.68616475459126, "lon": 78.95214393955827, "alt_km": 1178.3192830518392, "timestamp": "2025-12-16T05:49:09.483329+00:00", "meta": {"OBJECT_NAME": "NOVA 3", "OBJECT_ID": "1984-110A", "EPOCH": "2025-12-15T17:31:16.435776", "MEAN_MOTION": 13.23044924, "ECCENTRICITY": 0.00302848, "INCLINATION": 90.1224, "RA_OF_ASC_NODE": 80.5699, "ARG_OF_PERICENTER": 323.39, "MEAN_ANOMALY": 202.795, "EPHEMERIS_TYPE": 0, "CLASSIFICATION_TYPE": "U", "NORAD_CAT_ID": 15362, "ELEMENT_SET_NO": 999, "REV_AT_EPOCH": 98738, "BSTAR": 9.7018491e-05, "MEAN_MOTION_DOT": 4.9e-07, "MEAN_MOTION_DDOT": 0}, "tle": {"line1": "1 15362U 84110A   25349.73005134  .00000049  00000+0  97018-4 0  9998", "line2": "2 15362  90.1224  80.5699 0030284 323.3900 202.7950 13.23044924987383"}}, "geometry": {"type": "Point", "coordinates": [78.95214393955827, 85.68616475459126]}}, {"type": "Feature", "properties": {"norad_id": 15935, "name": "OSCAR 30", "group": "nnss", "lat": -31.67124840312513, "lon": 100.00638907770981, "alt_km": 1162.3489288247538, "timestamp": "2025-12-16T05:49:09.483340+00:00", "meta": {"OBJECT_NAME": "OSCAR 30", "OBJECT_ID": "1985-066A", "EPOCH": "2025-12-15T21:34:46.928064", "MEAN_MOTION": 13.36078792, "ECCENTRICITY": 0.01693632, "INCLINATION": 90.1654, "RA_OF_ASC_NODE": 99.8987, "ARG_OF_PERICENTER": 75.0933, "MEAN_ANOMALY": 44.8684, "EPHEMERIS_TYPE": 0, "CLASSIFICATION_TYPE": "U", "NORAD_CAT_ID": 15935, "ELEMENT_SET_NO": 999, "REV_AT_EPOCH": 96495, "BSTAR": 0.00012447477, "MEAN_MOTION_DOT": 7.9e-07, "MEAN_MOTION_DDOT": 0}, "tle": {"line1": "1 15935U 85066A   25349.89915426  .00000079  00000+0  12447-3 0  9991", "line2": "2 15935  90.1654  99.8987 0169363  75.0933  44.8684 13.36078792964958"}}, "geometry": {"type": "Point", "coordinates": [100.00638907770981, -31.67124840312513]}}, {"type": "Feature", "properties": {"norad_id": 15936, "name": "OSCAR 24", "group": "nnss", "lat": 42.584586128323245, "lon": 92.2025723492267, "alt_km": 1019.2266307830259, "timestamp": "2025-12-16T05:49:09.483350+00:00", "meta": {"OBJECT_NAME": "OSCAR 24", "OBJECT_ID": "1985-066B", "EPOCH": "2025-12-15T19:22:26.935680", "MEAN_MOTION": 13.35936216, "ECCENTRICITY": 0.01704534, "INCLINATION": 90.1791, "RA_OF_ASC_NODE": 92.3596, "ARG_OF_PERICENTER": 81.7809, "MEAN_ANOMALY": 30.1903, "EPHEMERIS_TYPE": 0, "CLASSIFICATION_TYPE": "U", "NORAD_CAT_ID": 15936, "ELEMENT_SET_NO": 999, "REV_AT_EPOCH": 96684, "BSTAR": 0.00011378352, "MEAN_MOTION_DOT": 7.3e-07, "MEAN_MOTION_DDOT": 0}, "tle": {"line1": "1 15936U 85066B   25349.80725620  .00000073  00000+0  11378-3 0  9994", "line2": "2 15936  90.1791  92.3596 0170453  81.7809  30.1903 13.35936216966848"}}, "geometry": {"type": "Point", "coordinates": [92.2025723492267, 42.584586128323245]}}]}